33064,ORBCOMM FM37,2008,97.53,-1.0,-,48.44,Inactive,0,LEO,Russia,ORBCOMM,Unknown,Unknown,Unknown,1 33064U 08031E   24143.12879839  .00003490  00000+0  52440-3 0  9992,2 33064  48.4413  38.2044 0005747 145.0537   8.0178 14.76527521856510,14.76527521,0.0005747,LEO
37840,VESSELSAT 1,2011,102.04,-1.0,-,19.96,Inactive,0,LEO,India,Luxembourg,Unknown,Unknown,Unknown,1 37840U 11058C   24143.45149917  .00000514  00000+0  13625-3 0  9990,2 37840  19.9632 297.8802 0013622 208.8989 151.0661 14.11158192651047,14.11158192,0.0013622,LEO
40088,ORBCOMM FM106,2014,98.15,-1.0,-,47.06,Inactive,0,LEO,USA,ORBCOMM,Unknown,Unknown,Unknown,1 40088U 14040C   24143.38300146  .00002712  00000+0  50951-3 0  9992,2 40088  47.0598 273.1790 0016944  51.2503 308.9899 14.67102756526046,14.67102756,0.0016944,LEO
40089,ORBCOMM FM111,2014,97.17,-1.0,-,47.0,Inactive,0,LEO,USA,ORBCOMM,Unknown,Unknown,Unknown,1 40089U 14040D   24143.09170920  .00002330  00000+0  31518-3 0  9990,2 40089  47.0018 174.2131 0031831 125.3187 235.0691 14.81882477532135,14.81882477,0.0031831,LEO
40090,ORBCOMM FM104,2014,98.96,-1.0,-,47.0,Inactive,0,LEO,USA,ORBCOMM,Unknown,Unknown,Unknown,1 40090U 14040E   24143.25339452  .00001509  00000+0  38367-3 0  9993,2 40090  47.0042  90.5765 0017273 221.7079 138.2489 14.55171476523659,14.55171476,0.0017273,LEO
40086,ORBCOMM FM109,2014,98.86,172.0,+,47.0,Active,1,LEO,USA,ORBCOMM,Commercial,Communications,Falcon,1 40086U 14040A   24143.16770322  .00002020  00000+0  48557-3 0  9994,2 40086  47.0037  60.9713 0002424 311.8042  48.2636 14.56657852524029,14.56657852,0.0002424,LEO
40087,ORBCOMM FM107,2014,98.86,172.0,+,47.01,Active,1,LEO,USA,ORBCOMM,Commercial,Communications,Falcon,1 40087U 14040B   24143.13327832  .00002116  00000+0  50669-3 0  9999,2 40087  47.0054  62.1006 0001965 285.0406  75.0261 14.56668914524093,14.56668914,0.0001965,LEO
